{
  "type": "FeatureCollection",
  "features": [
    {
      "type": "Feature",
      "properties": {
        "norad_id": 36585,
        "name": "GPS BIIF-1  (PRN 25)",
        "group": "gnss",
        "lat": -43.80112208249021,
        "lon": 172.45369219828848,
        "alt_km": 20370.29200336604,
        "timestamp": "2025-12-14T09:36:23.278665+00:00",
        "meta_object_name": "GPS BIIF-1  (PRN 25)",
        "meta_object_id": "2010-022A",
        "meta_epoch": "2025-12-13T05:27:57.415104",
        "meta_mean_motion": 2.00553278,
        "meta_eccentricity": 0.01261295,
        "meta_inclination": 54.3,
        "meta_ra_of_asc_node": 216.0542,
        "meta_arg_of_pericenter": 65.0762,
        "meta_mean_anomaly": 111.1577,
        "meta_ephemeris_type": 0,
        "meta_classification_type": "U",
        "meta_norad_cat_id": 36585,
        "meta_element_set_no": 999,
        "meta_rev_at_epoch": 11386,
        "meta_bstar": 0,
        "meta_mean_motion_dot": 3.5e-07,
        "meta_mean_motion_ddot": 0,
        "tle_line1": "1 36585U 10022A   25347.22774786  .00000035  00000+0  00000+0 0  9992",
        "tle_line2": "2 36585  54.3000 216.0542 0126129  65.0762 111.1577  2.00553278113862"
      },
      "geometry": {
        "type": "Point",
        "coordinates": [
          172.45369219828848,
          -43.80112208249021
        ]
      }
    },
    {
      "type": "Feature",
      "properties": {
        "norad_id": 36828,
        "name": "BEIDOU-2 IGSO-1 (C06)",
        "group": "gnss",
        "lat": 7.873250411311037,
        "lon": -21.09204510771429,
        "alt_km": 35633.085569680574,
        "timestamp": "2025-12-14T09:36:23.278677+00:00",
        "meta_object_name": "BEIDOU-2 IGSO-1 (C06)",
        "meta_object_id": "2010-036A",
        "meta_epoch": "2025-12-13T10:31:52.529952",
        "meta_mean_motion": 1.00275912,
        "meta_eccentricity": 0.00512352,
        "meta_inclination": 54.2869,
        "meta_ra_of_asc_node": 164.6409,
        "meta_arg_of_pericenter": 215.8264,
        "meta_mean_anomaly": 327.7653,
        "meta_ephemeris_type": 0,
        "meta_classification_type": "U",
        "meta_norad_cat_id": 36828,
        "meta_element_set_no": 999,
        "meta_rev_at_epoch": 5623,
        "meta_bstar": 0,
        "meta_mean_motion_dot": -3.2e-07,
        "meta_mean_motion_ddot": 0,
        "tle_line1": "1 36828U 10036A   25347.43880243 -.00000032  00000+0  00000+0 0  9994",
        "tle_line2": "2 36828  54.2869 164.6409 0051235 215.8264 327.7653  1.00275912 56233"
      },
      "geometry": {
        "type": "Point",
        "coordinates": [
          -21.09204510771429,
          7.873250411311037
        ]
      }
    },
    {
      "type": "Feature",
      "properties": {
        "norad_id": 37210,
        "name": "BEIDOU-2 G4 (C04)",
        "group": "gnss",
        "lat": -2.132396860589521,
        "lon": 27.62815156038615,
        "alt_km": 35813.392054008174,
        "timestamp": "2025-12-14T09:36:23.278689+00:00",
        "meta_object_name": "BEIDOU-2 G4 (C04)",
        "meta_object_id": "2010-057A",
        "meta_epoch": "2025-12-13T14:12:38.887200",
        "meta_mean_motion": 1.00271675,
        "meta_eccentricity": 0.00107835,
        "meta_inclination": 3.187,
        "meta_ra_of_asc_node": 69.937,
        "meta_arg_of_pericenter": 191.3943,
        "meta_mean_anomaly": 194.4276,
        "meta_ephemeris_type": 0,
        "meta_classification_type": "U",
        "meta_norad_cat_id": 37210,
        "meta_element_set_no": 999,
        "meta_rev_at_epoch": 5543,
        "meta_bstar": 0,
        "meta_mean_motion_dot": -9.7e-07,
        "meta_mean_motion_ddot": 0,
        "tle_line1": "1 37210U 10057A   25347.59211675 -.00000097  00000+0  00000+0 0  9998",
        "tle_line2": "2 37210   3.1870  69.9370 0010783 191.3943 194.4276  1.00271675 55436"
      },
      "geometry": {
        "type": "Point",
        "coordinates": [
          27.62815156038615,
          -2.132396860589521
        ]
      }
    },
    {
      "type": "Feature",
      "properties": {
        "norad_id": 37256,
        "name": "BEIDOU-2 IGSO-2 (C07)",
        "group": "gnss",
        "lat": 40.35125403645095,
        "lon": -35.80437184686978,
        "alt_km": 35966.171848146,
        "timestamp": "2025-12-14T09:36:23.278701+00:00",
        "meta_object_name": "BEIDOU-2 IGSO-2 (C07)",
        "meta_object_id": "2010-068A",
        "meta_epoch": "2025-12-03T17:22:36.027840",
        "meta_mean_motion": 1.0028872,
        "meta_eccentricity": 0.00492449,
        "meta_inclination": 47.9042,
        "meta_ra_of_asc_node": 274.2614,
        "meta_arg_of_pericenter": 216.1411,
        "meta_mean_anomaly": 310.24,
        "meta_ephemeris_type": 0,
        "meta_classification_type": "U",
        "meta_norad_cat_id": 37256,
        "meta_element_set_no": 999,
        "meta_rev_at_epoch": 5483,
        "meta_bstar": 0,
        "meta_mean_motion_dot": -2.25e-06,
        "meta_mean_motion_ddot": 0,
        "tle_line1": "1 37256U 10068A   25337.72402810 -.00000225  00000+0  00000+0 0  9990",
        "tle_line2": "2 37256  47.9042 274.2614 0049244 216.1411 310.2400  1.00288720 54834"
      },
      "geometry": {
        "type": "Point",
        "coordinates": [
          -35.80437184686978,
          40.35125403645095
        ]
      }
    },
    {
      "type": "Feature",
      "properties": {
        "norad_id": 37384,
        "name": "BEIDOU-2 IGSO-3 (C08)",
        "group": "gnss",
        "lat": -54.2699870930092,
        "lon": -5.292594835946039,
        "alt_km": 35832.69545301743,
        "timestamp": "2025-12-14T09:36:23.278715+00:00",
        "meta_object_name": "BEIDOU-2 IGSO-3 (C08)",
        "meta_object_id": "2011-013A",
        "meta_epoch": "2025-12-13T13:58:02.786016",
        "meta_mean_motion": 1.00270696,
        "meta_eccentricity": 0.00354199,
        "meta_inclination": 62.1449,
        "meta_ra_of_asc_node": 41.9072,
        "meta_arg_of_pericenter": 187.5637,
        "meta_mean_anomaly": 170.0888,
        "meta_ephemeris_type": 0,
        "meta_classification_type": "U",
        "meta_norad_cat_id": 37384,
        "meta_element_set_no": 999,
        "meta_rev_at_epoch": 5379,
        "meta_bstar": 0,
        "meta_mean_motion_dot": -1.97e-06,
        "meta_mean_motion_ddot": 0,
        "tle_line1": "1 37384U 11013A   25347.58197669 -.00000197  00000+0  00000+0 0  9999",
        "tle_line2": "2 37384  62.1449  41.9072 0035419 187.5637 170.0888  1.00270696 53792"
      },
      "geometry": {
        "type": "Point",
        "coordinates": [
          -5.292594835946039,
          -54.2699870930092
        ]
      }
    },
    {
      "type": "Feature",
      "properties": {
        "norad_id": 37605,
        "name": "GSAT-8 (GAGAN/PRN 127)",
        "group": "gnss",
        "lat": -0.5376903443604468,
        "lon": -77.49314692075784,
        "alt_km": 35750.39374804827,
        "timestamp": "2025-12-14T09:36:23.278727+00:00",
        "meta_object_name": "GSAT-8 (GAGAN/PRN 127)",
        "meta_object_id": "2011-022A",
        "meta_epoch": "2025-12-13T05:09:04.469184",
        "meta_mean_motion": 1.00271619,
        "meta_eccentricity": 0.00087123,
        "meta_inclination": 1.6512,
        "meta_ra_of_asc_node": 84.1905,
        "meta_arg_of_pericenter": 183.798,
        "meta_mean_anomaly": 306.5095,
        "meta_ephemeris_type": 0,
        "meta_classification_type": "U",
        "meta_norad_cat_id": 37605,
        "meta_element_set_no": 999,
        "meta_rev_at_epoch": 5135,
        "meta_bstar": 0,
        "meta_mean_motion_dot": 9.8e-07,
        "meta_mean_motion_ddot": 0,
        "tle_line1": "1 37605U 11022A   25347.21463506  .00000098  00000+0  00000+0 0  9990",
        "tle_line2": "2 37605   1.6512  84.1905 0008712 183.7980 306.5095  1.00271619 51358"
      },
      "geometry": {
        "type": "Point",
        "coordinates": [
          -77.49314692075784,
          -0.5376903443604468
        ]
      }
    },
    {
      "type": "Feature",
      "properties": {
        "norad_id": 37763,
        "name": "BEIDOU-2 IGSO-4 (C09)",
        "group": "gnss",
        "lat": 21.77462070290863,
        "lon": -29.2100116057032,
        "alt_km": 35634.644752130895,
        "timestamp": "2025-12-14T09:36:23.278739+00:00",
        "meta_object_name": "BEIDOU-2 IGSO-4 (C09)",
        "meta_object_id": "2011-038A",
        "meta_epoch": "2025-12-10T12:04:03.489024",
        "meta_mean_motion": 1.00284678,
        "meta_eccentricity": 0.01490344,
        "meta_inclination": 54.5829,
        "meta_ra_of_asc_node": 167.3658,
        "meta_arg_of_pericenter": 230.2355,
        "meta_mean_anomaly": 317.2212,
        "meta_ephemeris_type": 0,
        "meta_classification_type": "U",
        "meta_norad_cat_id": 37763,
        "meta_element_set_no": 999,
        "meta_rev_at_epoch": 5275,
        "meta_bstar": 0,
        "meta_mean_motion_dot": 3.6e-07,
        "meta_mean_motion_ddot": 0,
        "tle_line1": "1 37763U 11038A   25344.50281816  .00000036  00000+0  00000+0 0  9995",
        "tle_line2": "2 37763  54.5829 167.3658 0149034 230.2355 317.2212  1.00284678 52751"
      },
      "geometry": {
        "type": "Point",
        "coordinates": [
          -29.2100116057032,
          21.77462070290863
        ]
      }
    }
  ]
}